     2.100          NAVIGATION                              RINEX VERSION / TYPE
fic2rin                                 01/10/2010 00:53:28 PGM / RUN BY / DATE
                                                            END OF HEADER
21 10  1  9 20  0  0.0 -.329553149641D-04 -.238742359215D-11  .000000000000D+00
     .820000000000D+02  .379375000000D+02  .503199531709D-08 -.277735497959D+01
     .171363353729D-05  .158101243433D-01  .969506800175D-05  .515372262001D+04
     .590400000000D+06 -.745058059692D-08  .188816346458D+01 -.324100255966D-06
     .932665044260D+00  .178937500000D+03 -.253468085625D+01 -.795140263641D-08
    -.293226499775D-09  .100000000000D+01  .156500000000D+04  .000000000000D+00
     .240000000000D+01  .000000000000D+00 -.121071934700D-07  .820000000000D+02
     .583206000000D+06  .400000000000D+01
22 10  1  9 20  0  0.0  .181986019015D-03 -.909494701773D-12  .000000000000D+00
     .300000000000D+02  .109687500000D+03  .510092675979D-08  .132448697198D+01
     .565499067307D-05  .512667640578D-02  .649504363537D-05  .515366634369D+04
     .590400000000D+06 -.121071934700D-06  .295087137552D+01 -.577419996262D-07
     .937094117983D+00  .242968750000D+03 -.188046598025D+01 -.843999441679D-08
     .310727228751D-10  .100000000000D+01  .156500000000D+04  .000000000000D+00
     .240000000000D+01  .000000000000D+00 -.176951289177D-07  .300000000000D+02
     .583206000000D+06  .400000000000D+01
24 10  1  9 20  0  0.0  .252416357398D-03  .329691829393D-11  .000000000000D+00
     .350000000000D+02  .374687500000D+02  .473805450185D-08  .217586786389D+01
     .196136534214D-05  .601416954305D-02  .908970832825D-05  .515367502022D+04
     .590400000000D+06  .800937414169D-07  .192415829328D+01  .726431608200D-07
     .949288785117D+00  .198125000000D+03 -.557363894295D+00 -.790640076190D-08
    -.389301930274D-09  .100000000000D+01  .156500000000D+04  .000000000000D+00
     .340000000000D+01  .000000000000D+00 -.139698386192D-08  .350000000000D+02
     .583206000000D+06  .400000000000D+01
25 10  1  9 20  0  0.0  .755586661398D-04  .852651282912D-11  .000000000000D+00
     .370000000000D+02 -.923125000000D+02  .407659837811D-08  .272818931364D+01
    -.476278364658D-05  .114950553980D-01  .552088022232D-05  .515369167900D+04
     .590400000000D+06  .108033418655D-06 -.136047574713D+01  .447034835815D-07
     .971921289360D+00  .279093750000D+03 -.121157438739D+01 -.771925010918D-08
    -.143220251413D-09  .100000000000D+01  .156500000000D+04  .000000000000D+00
     .240000000000D+01  .630000000000D+02 -.745058059692D-08  .370000000000D+02
     .583206000000D+06  .400000000000D+01
26 10  1  9 20  0  0.0 -.836560502648D-05 -.284217094304D-11  .000000000000D+00
     .650000000000D+02 -.136250000000D+02  .390123393062D-08 -.231273508981D+01
    -.745058059692D-06  .196585395606D-01  .226870179176D-05  .515362323952D+04
     .590400000000D+06  .232830643654D-06 -.225402271890D+01 -.111758708954D-07
     .991627702897D+00  .348218750000D+03  .105492857342D+01 -.778996734055D-08
     .482162941165D-10  .100000000000D+01  .156500000000D+04  .000000000000D+00
     .240000000000D+01  .000000000000D+00 -.605359673500D-08  .650000000000D+02
     .583206000000D+06  .400000000000D+01
27 10  1  9 20  0  0.0  .115746166557D-03  .329691829393D-11  .000000000000D+00
     .102000000000D+03 -.807500000000D+02  .415124434456D-08  .516141850100D+00
    -.433437526226D-05  .217529095244D-01  .733882188797D-05  .515368722343D+04
     .590400000000D+06 -.236555933952D-06 -.132332791954D+01 -.225380063057D-06
     .976812667140D+00  .256437500000D+03 -.148756427708D+01 -.826462996930D-08
    -.223223583873D-09  .100000000000D+01  .156500000000D+04  .000000000000D+00
     .340000000000D+01  .000000000000D+00 -.419095158577D-08  .102000000000D+03
     .583206000000D+06  .400000000000D+01
28 10  1  9 20  0  0.0 -.238255597651D-04  .454747350886D-12  .000000000000D+00
     .190000000000D+02 -.394687500000D+02  .423410493889D-08  .155331139240D+01
    -.214576721191D-05  .156484745676D-01  .907108187675D-05  .515366343880D+04
     .590400000000D+06 -.370666384697D-06 -.187952987945D+00 -.245869159698D-06
     .969184734320D+00  .212312500000D+03 -.199365722147D+01 -.790568644643D-08
     .405731186047D-09  .100000000000D+01  .156500000000D+04  .000000000000D+00
     .240000000000D+01  .000000000000D+00 -.107102096081D-07  .190000000000D+02
     .583206000000D+06  .400000000000D+01
29 10  1  9 20  0  0.0  .887550413609D-04  .295585778076D-11  .000000000000D+00
     .680000000000D+02 -.737500000000D+01  .473626871317D-08 -.258991778877D+01
    -.420957803726D-06  .287996116094D-02  .667385756969D-05  .515353036499D+04
     .590400000000D+06  .298023223877D-07  .854849820315D+00  .558793544769D-07
     .960221465970D+00  .247187500000D+03 -.127600155854D+01 -.794390232399D-08
     .378587198248D-10  .100000000000D+01  .156500000000D+04  .000000000000D+00
     .240000000000D+01  .000000000000D+00 -.884756445885D-08  .680000000000D+02
     .583206000000D+06  .400000000000D+01
30 10  1  9 20  0  0.0  .209147110581D-03  .329691829393D-11  .000000000000D+00
     .540000000000D+02 -.384687500000D+02  .448590114150D-08  .205233084699D+01
    -.208429992199D-05  .118938516825D-01  .867806375027D-05  .515362964630D+04
     .590400000000D+06  .160187482834D-06 -.264490764028D+00 -.169500708580D-06
     .954837630466D+00  .206343750000D+03  .147042640829D+01 -.781211112007D-08
     .445375694543D-09  .100000000000D+01  .156500000000D+04  .000000000000D+00
     .240000000000D+01  .000000000000D+00 -.791624188423D-08  .540000000000D+02
     .583206000000D+06  .400000000000D+01
31 10  1  9 20  0  0.0 -.559496693313D-04  .136424205266D-11  .000000000000D+00
     .690000000000D+02 -.987500000000D+02  .407981279772D-08 -.190565913972D+01
    -.495836138725D-05  .753333466128D-02  .726059079170D-05  .515359925842D+04
     .590400000000D+06 -.372529029846D-07 -.126744075797D+01  .186264514923D-06
     .975279034526D+00  .248906250000D+03 -.112247210678D+01 -.788461414011D-08
    -.575023952056D-10  .100000000000D+01  .156500000000D+04  .000000000000D+00
     .240000000000D+01  .000000000000D+00 -.130385160446D-07  .690000000000D+02
     .583206000000D+06  .400000000000D+01
32 10  1  9 20  0  0.0  .120393466204D-03 -.795807864051D-11  .000000000000D+00
     .160000000000D+02  .102031250000D+03  .452304554586D-08 -.109081979533D+01
     .530667603016D-05  .130072883330D-01  .715814530849D-05  .515362509346D+04
     .590400000000D+06 -.219792127609D-06  .300605405719D+01 -.139698386192D-06
     .961212288681D+00  .244312500000D+03 -.103937342985D+01 -.830391732006D-08
     .127505311108D-09  .100000000000D+01  .156500000000D+04  .000000000000D+00
     .240000000000D+01  .000000000000D+00 -.325962901115D-08  .160000000000D+02
     .583206000000D+06  .400000000000D+01
 1 10  1  9 22  0  0.0 -.776355154812D-04 -.329691829393D-11  .000000000000D+00
     .187000000000D+03 -.306562500000D+02  .556880339159D-08 -.275661545624D+01
    -.151060521603D-05  .382975419052D-02  .886991620064D-05  .515365202141D+04
     .597600000000D+06 -.372529029846D-07 -.226734605366D+00  .204890966415D-07
     .963558718580D+00  .209843750000D+03  .939461583180D+00 -.775460872487D-08
     .413945813933D-09  .100000000000D+01  .156500000000D+04  .000000000000D+00
     .240000000000D+01  .630000000000D+02 -.190921127796D-07  .187000000000D+03
     .590406000000D+06  .400000000000D+01
 2 10  1  9 22  0  0.0  .213650055230D-03  .432009983342D-11  .000000000000D+00
     .104000000000D+03  .139687500000D+02  .509806949791D-08  .896543975970D+00
     .756233930588D-06  .926226342563D-02  .869296491146D-05  .515375873184D+04
     .597600000000D+06  .165775418282D-06  .185836749962D+01  .128522515297D-06
     .939941680710D+00  .200531250000D+03  .293932451338D+01 -.817784063989D-08
    -.362515100209D-09  .100000000000D+01  .156500000000D+04  .000000000000D+00
     .240000000000D+01  .000000000000D+00 -.172294676304D-07  .104000000000D+03
     .590406000000D+06  .400000000000D+01
 3 10  1  9 22  0  0.0  .499719753861D-03  .522959453519D-11  .000000000000D+00
     .660000000000D+02 -.518750000000D+01  .560809074235D-08  .695259308775D+00
    -.229105353355D-06  .127794988221D-01  .655278563499D-05  .515367585373D+04
     .597600000000D+06 -.163912773132D-06  .707523622513D+00  .745058059692D-07
     .926861474152D+00  .236843750000D+03  .977090014464D+00 -.862500212310D-08
     .150006248362D-10  .100000000000D+01  .156500000000D+04  .000000000000D+00
     .340000000000D+01  .000000000000D+00 -.419095158577D-08  .660000000000D+02
     .590406000000D+06  .400000000000D+01
 4 10  1  9 22  0  0.0 -.449473503977D-03 -.190993887372D-10  .000000000000D+00
     .320000000000D+02  .167187500000D+02  .501735184999D-08 -.245846908415D+01
     .637024641037D-06  .913416489493D-02  .920519232750D-05  .515360991287D+04
     .597600000000D+06  .186264514923D-07  .187643477343D+01 -.137835741043D-06
     .939113593005D+00  .190375000000D+03  .583899712670D+00 -.804676375144D-08
    -.264653881039D-09  .100000000000D+01  .156500000000D+04  .000000000000D+00
     .240000000000D+01  .000000000000D+00 -.605359673500D-08  .320000000000D+02
     .590406000000D+06  .400000000000D+01
 5 10  1  9 22  0  0.0 -.183954834938D-04  .409272615798D-11  .000000000000D+00
     .820000000000D+02  .937500000000D+02  .448768693017D-08  .231542163499D+01
     .494532287121D-05  .184789102059D-02  .732019543648D-05  .515363691902D+04
     .597600000000D+06 -.782310962677D-07  .291706061915D+01  .204890966415D-07
     .960353102264D+00  .239062500000D+03  .299504719322D+00 -.799997608826D-08
     .178578867098D-11  .100000000000D+01  .156500000000D+04  .000000000000D+00
     .340000000000D+01  .000000000000D+00 -.884756445885D-08  .820000000000D+02
     .590406000000D+06  .400000000000D+01
